#aV2016  2 20  0  0  0.00000000     288 DD+AD WGS84 FIT  NGA
## 1884 518400.00000000   300.00000000 57438 0.0000000000000
+   30     1  2  3  5  6  7  8  9 10 11 12 13 14 15 16 17 18
+         19 20 21 22 23 24 25 26 27 28 29 30 31  0  0  0  0
+          0  0  0  0  0  0  0  0  0  0  0  0  0  0  0  0  0
+          0  0  0  0  0  0  0  0  0  0  0  0  0  0  0  0  0
+          0  0  0  0  0  0  0  0  0  0  0  0  0  0  0  0  0
++         2  2  2  2  2  2  2  2  2  2  2  2  2  2  2  2  2
++         2  2  2  2  2  2  2  2  2  2  2  2  2  0  0  0  0
++         0  0  0  0  0  0  0  0  0  0  0  0  0  0  0  0  0
++         0  0  0  0  0  0  0  0  0  0  0  0  0  0  0  0  0
++         0  0  0  0  0  0  0  0  0  0  0  0  0  0  0  0  0
%c cc cc ccc ccc cccc cccc cccc cccc ccccc ccccc ccccc ccccc
%c cc cc ccc ccc cccc cccc cccc cccc ccccc ccccc ccccc ccccc
%f  0.0000000  0.000000000  0.00000000000  0.000000000000000
%f  0.0000000  0.000000000  0.00000000000  0.000000000000000
%i    0    0    0    0      0      0      0      0         0
%i    0    0    0    0      0      0      0      0         0
/*      NGA, ST. LOUIS,MO.                                  
/*   EPHEMERIS COMPUTED FROM 2 DAYS OF DATA                 
/*   EPOCHA v2.4 SMOOTHER                                   
/*   G1762 IERS2010 SATAF SATAPC                            
*  2016  2 20 13 15  0.00000000
P  1 -12588.331349  22057.848714  -7450.086389     12.252714                    
V  1  -8270.090563   5257.138959  30046.652997      0.010211                    
P  2  20345.056658 -10720.756964 -12499.308938    599.525129                    
V  2  -8072.774982  15006.464838 -25582.452335     -0.000831                    
P  3  -6963.350340  13980.222270 -21485.348683    -26.928356                    
V  3 -26688.468681  -5678.423625   4941.990627     -0.046606                    
P  5  24009.539539  -3572.797537  10939.958320   -144.389517                    
V  5  13231.670604   5180.864606 -26979.822539      0.033939                    
P  6  16328.177117   3118.506352 -20703.815878    148.469265                    
V  6 -16597.771515  20422.904798 -10014.430466      0.059871                    
P  7   1236.460597  18264.729627  19228.299295    468.789897                    
V  7 -17428.534825  16929.862466 -15445.873656     -0.016806                    
P  8  -8923.072053  15713.457795  19516.262088    -24.593727                    
V  8  -9311.879525 -22870.069760  14215.822475     -0.014095                    
P  9   7783.784905  25347.244050  -1450.257798     74.530503                    
V  9  -3437.608257   -725.224135 -31565.050328      0.076558                    
P 10 -22419.316251 -10899.016155   9255.602993     40.878586                    
V 10  11993.136351   -287.378009  28687.295458     -0.052871                    
P 11 -10288.579781  24365.399644   1519.177119   -633.199996                    
V 11  -3708.232759  -4125.798792  30201.379745     -0.017529                    
P 12  11177.817669 -11551.617786 -21213.686553    369.188785                    
V 12  25691.034607   7065.089801   9955.754176      0.016787                    
P 13  13527.639028  -7121.660471  21591.180811   -186.543875                    
V 13   6313.230927  26971.521510   4821.835733     -0.024868                    
P 14 -14300.900120 -17731.696451 -13532.004844      1.963677                    
V 14  -2372.627533 -17500.112312  24831.415667     -0.022381                    
P 15   5795.454777 -19308.274530  16996.720340   -298.096568                    
V 15  10622.376540  19481.981183  18718.529289     -0.018103                    
P 16 -24373.207894    838.502708  10898.934937    -38.278464                    
V 16 -12973.254597  -4887.614788 -28030.059425      0.030704                    
P 17  14184.078572  18668.861744 -12334.994864   -200.969856                    
V 17   2689.360257  15980.305696  26384.353555     -0.005964                    
P 18 -12533.691447 -15779.104243  17953.859022    485.497409                    
V 18  21811.473545   1703.195499  16959.762826      0.040287                    
P 19  15789.604075   9311.378879 -19313.110789   -524.921991                    
V 19   4334.307217  23768.624799  15592.791439     -0.001150                    
P 20  10542.753130 -13864.095325  19908.670313    394.114403                    
V 20  25435.726392   4182.979943 -10418.768794      0.025960                    
P 21  -5992.725678 -16518.268783  20587.460980   -511.347689                    
V 21  16685.134596 -18223.386723 -10421.150373     -0.018355                    
P 22 -25348.785479   1786.221063  -7820.696262    394.148165                    
V 22  -9507.053584  -5249.472092  28607.313053     -0.060320                    
P 23   -898.574716  23491.231201 -11751.787281   -160.970670                    
V 23  -7941.842151 -13539.555770 -26504.463629     -0.018595                    
P 24  14270.923549 -21869.561174  -4292.778933    -12.690079                    
V 24   5964.808007  -2088.295329  31021.672677     -0.006201                    
P 25  -2937.220500 -15374.869947 -21590.676843   -120.381024                    
V 25  26646.841349   4842.216182  -6922.674790     -0.067494                    
P 26 -26207.378290  -4386.247442    800.617573   -262.156954                    
V 26   -477.367491  -2924.694830 -31705.232064     -0.155095                    
P 27 -14274.206713   4634.295911  21892.772774     64.614966                    
V 27  -9168.599383 -26266.329060   -268.309138      0.036158                    
P 28  20943.051493  12974.860003  10615.501604    503.742280                    
V 28 -12436.989851  -1873.133956  28494.288137      0.027227                    
P 29  -4323.162084 -25879.842935  -4252.561916    654.586616                    
V 29   3645.895914   4588.404790 -31454.032490      0.007058                    
P 30  10518.278468  11216.015414  21647.783160     98.510974                    
V 30 -19561.931468  19376.443112   -615.171859      0.042289                    
P 31 -17628.422679   -930.045698 -19847.341275    281.819624                    
V 31  16604.869791 -19108.315373 -13421.345451     -0.017231                    
EOF
